CCSDS_OMM_VERS = 2.0
CREATION_DATE  = 
ORIGINATOR     = 

OBJECT_NAME    = COSMOS 1743
OBJECT_ID      = 1986-034A
CENTER_NAME    = EARTH
REF_FRAME      = TEME
TIME_SYSTEM    = UTC
MEAN_ELEMENT_THEORY = SGP/SGP4

EPOCH          = 2025-11-08T15:41:17.081088
MEAN_MOTION    = 15.49816121
ECCENTRICITY   = .0007929
INCLINATION    = 82.5372
RA_OF_ASC_NODE = 199.9284
ARG_OF_PERICENTER = 30.3146
MEAN_ANOMALY   = 329.8562

EPHEMERIS_TYPE = 0
CLASSIFICATION_TYPE = U
NORAD_CAT_ID   = 16719
ELEMENT_SET_NO = 999
REV_AT_EPOCH   = 16145
BSTAR          = .74338E-3
MEAN_MOTION_DOT = .4161E-3
MEAN_MOTION_DDOT = 0

CCSDS_OMM_VERS = 2.0
CREATION_DATE  = 
ORIGINATOR     = 

OBJECT_NAME    = SL-14 R/B
OBJECT_ID      = 1986-046B
CENTER_NAME    = EARTH
REF_FRAME      = TEME
TIME_SYSTEM    = UTC
MEAN_ELEMENT_THEORY = SGP/SGP4

EPOCH          = 2025-11-08T15:07:01.562016
MEAN_MOTION    = 14.85433510
ECCENTRICITY   = .0021614
INCLINATION    = 82.4839
RA_OF_ASC_NODE = 194.5236
ARG_OF_PERICENTER = 268.3818
MEAN_ANOMALY   = 91.4922

EPHEMERIS_TYPE = 0
CLASSIFICATION_TYPE = U
NORAD_CAT_ID   = 16792
ELEMENT_SET_NO = 999
REV_AT_EPOCH   = 10843
BSTAR          = .89389E-4
MEAN_MOTION_DOT = .797E-5
MEAN_MOTION_DDOT = 0

CCSDS_OMM_VERS = 2.0
CREATION_DATE  = 
ORIGINATOR     = 

OBJECT_NAME    = SL-14 R/B
OBJECT_ID      = 1986-055B
CENTER_NAME    = EARTH
REF_FRAME      = TEME
TIME_SYSTEM    = UTC
MEAN_ELEMENT_THEORY = SGP/SGP4

EPOCH          = 2025-11-08T19:46:18.947424
MEAN_MOTION    = 14.85473576
ECCENTRICITY   = .0019501
INCLINATION    = 82.5213
RA_OF_ASC_NODE = 240.2366
ARG_OF_PERICENTER = 16.7677
MEAN_ANOMALY   = 4.6687

EPHEMERIS_TYPE = 0
CLASSIFICATION_TYPE = U
NORAD_CAT_ID   = 16882
ELEMENT_SET_NO = 999
REV_AT_EPOCH   = 10142
BSTAR          = .11197E-3
MEAN_MOTION_DOT = .993E-5
MEAN_MOTION_DDOT = 0

CCSDS_OMM_VERS = 2.0
CREATION_DATE  = 
ORIGINATOR     = 

OBJECT_NAME    = AJISAI (EGS)
OBJECT_ID      = 1986-061A
CENTER_NAME    = EARTH
REF_FRAME      = TEME
TIME_SYSTEM    = UTC
MEAN_ELEMENT_THEORY = SGP/SGP4

EPOCH          = 2025-11-08T20:59:40.627392
MEAN_MOTION    = 12.44514155
ECCENTRICITY   = .0011172
INCLINATION    = 50.0073
RA_OF_ASC_NODE = 104.8485
ARG_OF_PERICENTER = 340.5594
MEAN_ANOMALY   = 184.2779

EPHEMERIS_TYPE = 0
CLASSIFICATION_TYPE = U
NORAD_CAT_ID   = 16908
ELEMENT_SET_NO = 999
REV_AT_EPOCH   = 45295
BSTAR          = -.81642E-4
MEAN_MOTION_DOT = -.109E-5
MEAN_MOTION_DDOT = 0

CCSDS_OMM_VERS = 2.0
CREATION_DATE  = 
ORIGINATOR     = 

OBJECT_NAME    = COSMOS 1812
OBJECT_ID      = 1987-003A
CENTER_NAME    = EARTH
REF_FRAME      = TEME
TIME_SYSTEM    = UTC
MEAN_ELEMENT_THEORY = SGP/SGP4

EPOCH          = 2025-11-08T11:31:15.693600
MEAN_MOTION    = 15.68582945
ECCENTRICITY   = .00044
INCLINATION    = 82.4883
RA_OF_ASC_NODE = 328.9037
ARG_OF_PERICENTER = 150.1091
MEAN_ANOMALY   = 210.0423

EPHEMERIS_TYPE = 0
CLASSIFICATION_TYPE = U
NORAD_CAT_ID   = 17295
ELEMENT_SET_NO = 999
REV_AT_EPOCH   = 12527
BSTAR          = .6773E-3
MEAN_MOTION_DOT = .77285E-3
MEAN_MOTION_DDOT = 0

CCSDS_OMM_VERS = 2.0
CREATION_DATE  = 
ORIGINATOR     = 

OBJECT_NAME    = SL-14 R/B
OBJECT_ID      = 1987-024B
CENTER_NAME    = EARTH
REF_FRAME      = TEME
TIME_SYSTEM    = UTC
MEAN_ELEMENT_THEORY = SGP/SGP4

EPOCH          = 2025-11-08T15:21:25.416864
MEAN_MOTION    = 14.85972588
ECCENTRICITY   = .0017049
INCLINATION    = 82.5306
RA_OF_ASC_NODE = 206.4824
ARG_OF_PERICENTER = 304.8792
MEAN_ANOMALY   = 55.0821

EPHEMERIS_TYPE = 0
CLASSIFICATION_TYPE = U
NORAD_CAT_ID   = 17567
ELEMENT_SET_NO = 999
REV_AT_EPOCH   = 7015
BSTAR          = .95543E-4
MEAN_MOTION_DOT = .86E-5
MEAN_MOTION_DDOT = 0

CCSDS_OMM_VERS = 2.0
CREATION_DATE  = 
ORIGINATOR     = 

OBJECT_NAME    = COSMOS 1833
OBJECT_ID      = 1987-027A
CENTER_NAME    = EARTH
REF_FRAME      = TEME
TIME_SYSTEM    = UTC
MEAN_ELEMENT_THEORY = SGP/SGP4

EPOCH          = 2025-11-08T17:42:41.956704
MEAN_MOTION    = 14.13021332
ECCENTRICITY   = .0021006
INCLINATION    = 70.9154
RA_OF_ASC_NODE = 220.2530
ARG_OF_PERICENTER = 19.7428
MEAN_ANOMALY   = 340.4501

EPHEMERIS_TYPE = 0
CLASSIFICATION_TYPE = U
NORAD_CAT_ID   = 17589
ELEMENT_SET_NO = 999
REV_AT_EPOCH   = 99322
BSTAR          = -.95756E-4
MEAN_MOTION_DOT = -.227E-5
MEAN_MOTION_DDOT = 0

CCSDS_OMM_VERS = 2.0
CREATION_DATE  = 
ORIGINATOR     = 

OBJECT_NAME    = SL-16 R/B
OBJECT_ID      = 1987-027B
CENTER_NAME    = EARTH
REF_FRAME      = TEME
TIME_SYSTEM    = UTC
MEAN_ELEMENT_THEORY = SGP/SGP4

EPOCH          = 2025-11-08T13:38:46.460256
MEAN_MOTION    = 14.17146325
ECCENTRICITY   = .0007011
INCLINATION    = 71.0011
RA_OF_ASC_NODE = 171.7223
ARG_OF_PERICENTER = 295.3661
MEAN_ANOMALY   = 64.6736

EPHEMERIS_TYPE = 0
CLASSIFICATION_TYPE = U
NORAD_CAT_ID   = 17590
ELEMENT_SET_NO = 999
REV_AT_EPOCH   = 99822
BSTAR          = .13789E-3
MEAN_MOTION_DOT = .23E-5
MEAN_MOTION_DDOT = 0

CCSDS_OMM_VERS = 2.0
CREATION_DATE  = 
ORIGINATOR     = 

OBJECT_NAME    = SL-14 R/B
OBJECT_ID      = 1987-038B
CENTER_NAME    = EARTH
REF_FRAME      = TEME
TIME_SYSTEM    = UTC
MEAN_ELEMENT_THEORY = SGP/SGP4

EPOCH          = 2025-11-08T16:58:39.943200
MEAN_MOTION    = 14.85208295
ECCENTRICITY   = .0018796
INCLINATION    = 82.5033
RA_OF_ASC_NODE = 50.7473
ARG_OF_PERICENTER = 200.5472
MEAN_ANOMALY   = 159.4990

EPHEMERIS_TYPE = 0
CLASSIFICATION_TYPE = U
NORAD_CAT_ID   = 17912
ELEMENT_SET_NO = 999
REV_AT_EPOCH   = 6127
BSTAR          = .10578E-3
MEAN_MOTION_DOT = .933E-5
MEAN_MOTION_DDOT = 0

CCSDS_OMM_VERS = 2.0
CREATION_DATE  = 
ORIGINATOR     = 

OBJECT_NAME    = COSMOS 1844
OBJECT_ID      = 1987-041A
CENTER_NAME    = EARTH
REF_FRAME      = TEME
TIME_SYSTEM    = UTC
MEAN_ELEMENT_THEORY = SGP/SGP4

EPOCH          = 2025-11-08T08:03:01.242720
MEAN_MOTION    = 14.14516558
ECCENTRICITY   = .0031988
INCLINATION    = 70.8980
RA_OF_ASC_NODE = 290.1346
ARG_OF_PERICENTER = 208.3807
MEAN_ANOMALY   = 151.5574

EPHEMERIS_TYPE = 0
CLASSIFICATION_TYPE = U
NORAD_CAT_ID   = 17973
ELEMENT_SET_NO = 999
REV_AT_EPOCH   = 98642
BSTAR          = .28432E-3
MEAN_MOTION_DOT = .5E-5
MEAN_MOTION_DDOT = 0

CCSDS_OMM_VERS = 2.0
CREATION_DATE  = 
ORIGINATOR     = 

OBJECT_NAME    = SL-14 R/B
OBJECT_ID      = 1987-055B
CENTER_NAME    = EARTH
REF_FRAME      = TEME
TIME_SYSTEM    = UTC
MEAN_ELEMENT_THEORY = SGP/SGP4

EPOCH          = 2025-11-08T20:09:37.443744
MEAN_MOTION    = 14.85464727
ECCENTRICITY   = .0021929
INCLINATION    = 82.4970
RA_OF_ASC_NODE = 102.9350
ARG_OF_PERICENTER = 55.5502
MEAN_ANOMALY   = 304.7782

EPHEMERIS_TYPE = 0
CLASSIFICATION_TYPE = U
NORAD_CAT_ID   = 18153
ELEMENT_SET_NO = 999
REV_AT_EPOCH   = 5199
BSTAR          = .97011E-4
MEAN_MOTION_DOT = .864E-5
MEAN_MOTION_DDOT = 0

CCSDS_OMM_VERS = 2.0
CREATION_DATE  = 
ORIGINATOR     = 

OBJECT_NAME    = COSMOS 1867
OBJECT_ID      = 1987-060A
CENTER_NAME    = EARTH
REF_FRAME      = TEME
TIME_SYSTEM    = UTC
MEAN_ELEMENT_THEORY = SGP/SGP4

EPOCH          = 2025-11-08T15:35:30.197184
MEAN_MOTION    = 14.31477323
ECCENTRICITY   = .0013732
INCLINATION    = 65.0100
RA_OF_ASC_NODE = 285.6671
ARG_OF_PERICENTER = 267.7097
MEAN_ANOMALY   = 92.2415

EPHEMERIS_TYPE = 0
CLASSIFICATION_TYPE = U
NORAD_CAT_ID   = 18187
ELEMENT_SET_NO = 999
REV_AT_EPOCH   = 261
BSTAR          = .50238E-4
MEAN_MOTION_DOT = .34E-6
MEAN_MOTION_DDOT = 0

