COSMOS 1743             
1 16719U 86034A   25312.65366992  .00041610  00000+0  74338-3 0  9993
2 16719  82.5372 199.9284 0007929  30.3146 329.8562 15.49816121161459
SL-14 R/B               
1 16792U 86046B   25312.62987919  .00000797  00000+0  89389-4 0  9996
2 16792  82.4839 194.5236 0021614 268.3818  91.4922 14.85433510108438
SL-14 R/B               
1 16882U 86055B   25312.82383041  .00000993  00000+0  11197-3 0  9993
2 16882  82.5213 240.2366 0019501  16.7677   4.6687 14.85473576101420
AJISAI (EGS)            
1 16908U 86061A   25312.87477578 -.00000109  00000+0 -81642-4 0  9997
2 16908  50.0073 104.8485 0011172 340.5594 184.2779 12.44514155452958
COSMOS 1812             
1 17295U 87003A   25312.48004275  .00077285  00000+0  67730-3 0  9999
2 17295  82.4883 328.9037 0004400 150.1091 210.0423 15.68582945125278
SL-14 R/B               
1 17567U 87024B   25312.63987751  .00000860  00000+0  95543-4 0  9999
2 17567  82.5306 206.4824 0017049 304.8792  55.0821 14.85972588 70153
COSMOS 1833             
1 17589U 87027A   25312.73798561 -.00000227  00000+0 -95756-4 0  9991
2 17589  70.9154 220.2530 0021006  19.7428 340.4501 14.13021332993224
SL-16 R/B               
1 17590U 87027B   25312.56859329  .00000230  00000+0  13789-3 0  9991
2 17590  71.0011 171.7223 0007011 295.3661  64.6736 14.17146325998224
SL-14 R/B               
1 17912U 87038B   25312.70740675  .00000933  00000+0  10578-3 0  9993
2 17912  82.5033  50.7473 0018796 200.5472 159.4990 14.85208295 61277
COSMOS 1844             
1 17973U 87041A   25312.33543105  .00000500  00000+0  28432-3 0  9990
2 17973  70.8980 290.1346 0031988 208.3807 151.5574 14.14516558986420
SL-14 R/B               
1 18153U 87055B   25312.84001671  .00000864  00000+0  97011-4 0  9992
2 18153  82.4970 102.9350 0021929  55.5502 304.7782 14.85464727 51998
COSMOS 1867             
1 18187U 87060A   25312.64965506  .00000034  00000+0  50238-4 0  9998
2 18187  65.0100 285.6671 0013732 267.7097  92.2415 14.31477323  2615
